{"type":"FeatureCollection","name":"ile-de-montreal","attribution":"Ville de Montreal, limites de l agglomeration. CC BY 4.0.","features":[{"type":"Feature","properties":{"name":"Ile de Montreal"},"geometry":{"type":"Polygon","coordinates":[[[-73.8221792631662,45.3854030130529],[-73.8450133267102,45.3967087839796],[-73.85620820134,45.401264506831],[-73.866569444384,45.4048478893512],[-73.8761256250464,45.4077090665672],[-73.8837921265912,45.4094869617751],[-73.8888202576447,45.4101814542823],[-73.8920156280593,45.4103678900694],[-73.8946418338836,45.4101396196177],[-73.899626358377,45.4087926209879],[-73.9047261674175,45.4065801474523],[-73.90880643565,45.4039525348789],[-73.9134882191129,45.4002369944698],[-73.9164049662535,45.3989036568599],[-73.9188773588487,45.3983480769609],[-73.9290722470544,45.3984037400839],[-73.9383501711742,45.3993760008979],[-73.944619895559,45.400724365473],[-73.9502600649351,45.4012902978182],[-73.9528574214102,45.4023728331196],[-73.9598129517223,45.4043761327082],[-73.9604099055759,45.4048370195138],[-73.9611698769395,45.4075773484034],[-73.9630861497976,45.4089410227366],[-73.9645991748106,45.4096676132377],[-73.9768712471747,45.4131958465258],[-73.9807275174205,45.4152086973795],[-73.9820736071349,45.4167928648436],[-73.9828793140559,45.4183762422788],[-73.9839070840757,45.4249872845152],[-73.9870181518683,45.4365150070407],[-73.990462998678,45.4454040051319],[-73.9966021388108,45.4574873223307],[-73.9901019636365,45.4595149688998],[-73.9822403127733,45.462459456173],[-73.9779070031931,45.4644316112608],[-73.9709067925099,45.4686815645703],[-73.9674342332785,45.4715704033487],[-73.9657119092986,45.4734314840765],[-73.9589616256519,45.482348177708],[-73.9518501773477,45.4903758531151],[-73.9333735504331,45.5075453254507],[-73.9301295707014,45.5092559324989],[-73.9239735364668,45.5115768274671],[-73.9194443650837,45.5137415885769],[-73.9154509051831,45.5167034476919],[-73.9104821617617,45.5209675404325],[-73.9076882639573,45.5222763199353],[-73.903984217769,45.5234883637496],[-73.8986507687527,45.5246435291],[-73.8961390910007,45.5255463424205],[-73.8923863874376,45.5227886008257],[-73.8900770111395,45.52201276374],[-73.8831481497972,45.52218101306],[-73.8783287870376,45.5206056436557],[-73.8677919322368,45.5198445206918],[-73.8635691122245,45.5199785375116],[-73.861752557824,45.5175369518067],[-73.8565812193317,45.5150698613583],[-73.8560952375806,45.5134076783381],[-73.8540003483317,45.5116781374218],[-73.8531784775282,45.5114863866728],[-73.8518799259602,45.511708898288],[-73.8504957712791,45.5125811339682],[-73.8473220193917,45.5166896418203],[-73.8455756062468,45.5181415733046],[-73.8443714722809,45.5185551268579],[-73.8331073511233,45.51832340835],[-73.8302572378946,45.5187173935329],[-73.826779370072,45.5180281526425],[-73.8214656862242,45.5160179423005],[-73.8201488279783,45.5159010483573],[-73.8128819120697,45.5176090903853],[-73.8106520753661,45.517735585713],[-73.8050853229582,45.5161593369832],[-73.801829507967,45.5159026877538],[-73.7996324276191,45.5153299081853],[-73.7984592128791,45.5147543257846],[-73.7970628017438,45.5134077113209],[-73.7949549969188,45.5123763667585],[-73.7714941079572,45.5113254636721],[-73.7661200686745,45.5114345818562],[-73.7637091052525,45.5118982376316],[-73.7612287388225,45.5131819261178],[-73.7596990289421,45.5144873380142],[-73.7581359155214,45.5164678438109],[-73.7558762504862,45.5181367156264],[-73.7535762361961,45.5189376482881],[-73.7497375067429,45.5191389617054],[-73.7476192773453,45.5197464338036],[-73.7447414706955,45.5222842204064],[-73.7426358132774,45.5258571019037],[-73.7412527125853,45.5274513712387],[-73.7381163108665,45.5296038263439],[-73.7343558028368,45.5311305869032],[-73.7297880963812,45.5322008788305],[-73.7279999769065,45.5332411755488],[-73.7240259981348,45.5364317142786],[-73.7212881757464,45.5379319151272],[-73.7161333530843,45.5386891715961],[-73.7133213568032,45.5398759672673],[-73.7110767419225,45.54123038394],[-73.7092747277811,45.5431763069818],[-73.7078617420202,45.5422891479669],[-73.7069157419552,45.543707086122],[-73.7055599125379,45.544141455528],[-73.7050471247225,45.5439894048911],[-73.7035004198903,45.5447660301759],[-73.7024886216912,45.5447318346837],[-73.7026824567545,45.5452174026364],[-73.7024022415981,45.5456408225864],[-73.7012381032588,45.5459848171101],[-73.7005871945086,45.5466068489456],[-73.6997926903735,45.5464642674756],[-73.6949039385381,45.5474175411357],[-73.6924442526679,45.5471787555583],[-73.6886551253525,45.5476618982862],[-73.6874039356105,45.5488248370091],[-73.6860479807014,45.5493039664185],[-73.6848182156943,45.5492159790731],[-73.6838947060507,45.5487855482688],[-73.6799265586835,45.549412753978],[-73.6800019646445,45.5489627172828],[-73.6792582487626,45.5486759392754],[-73.6790964178784,45.5501429254076],[-73.6771168733364,45.5519186877233],[-73.6742071143938,45.5552795470576],[-73.6733326336867,45.55830432152],[-73.6719164837321,45.5601601199728],[-73.6673659346302,45.563406279267],[-73.6643454303294,45.5643374931141],[-73.6635028145832,45.5653285188802],[-73.663198538081,45.5664267504201],[-73.6635872786772,45.5679469120771],[-73.6626420781714,45.5689290793916],[-73.6625705551917,45.5705237798444],[-73.6619294697621,45.5713396973303],[-73.661824327877,45.5732032601041],[-73.6611118390377,45.5747161142897],[-73.6624063003656,45.574988953176],[-73.6639049718045,45.5730120363302],[-73.6644480043112,45.5728120150966],[-73.665435971295,45.5729040001764],[-73.6660780119494,45.5737040000258],[-73.6659754572432,45.5740893221124],[-73.6639588391871,45.5767647342403],[-73.6621048553558,45.578135123729],[-73.6605357634334,45.5805848798869],[-73.6590248418722,45.5809919170167],[-73.656812093183,45.5824706980961],[-73.656913105495,45.5819306610548],[-73.6575904566769,45.5812817597026],[-73.6596768101576,45.5804421107933],[-73.6606089024343,45.5792710239292],[-73.6606203564794,45.5787940973587],[-73.6616539282638,45.5772809229975],[-73.6614352761383,45.5769932861584],[-73.6618273591591,45.5754997489656],[-73.6615845448921,45.5754273678844],[-73.6617290783758,45.5751207999071],[-73.6611610113556,45.5750010846046],[-73.6611748401151,45.5755359268578],[-73.660600129417,45.5761936133051],[-73.6607320082556,45.5775070908086],[-73.6600539460799,45.5778770645378],[-73.6601575539874,45.5782638467543],[-73.6597363132592,45.578831330166],[-73.658547474707,45.5798407970538],[-73.6582521979948,45.5796432436693],[-73.6581510509921,45.5801292924456],[-73.6571025360397,45.5809315886402],[-73.6552215530139,45.5819149753775],[-73.654302956979,45.5836316649034],[-73.6565194257812,45.5839592623429],[-73.6584686968985,45.5851236340859],[-73.6506659266122,45.5958284929277],[-73.6466745258188,45.5992755937985],[-73.645232766244,45.6009893436477],[-73.6399860848526,45.6115443210588],[-73.6383161115486,45.6174293509486],[-73.6342470271738,45.6237631925112],[-73.6304298814529,45.628601842766],[-73.6187458133554,45.638439704527],[-73.6111170156095,45.6440530862424],[-73.6066512369422,45.6465165205814],[-73.600973603505,45.648161220614],[-73.5847880072175,45.6567335678926],[-73.5809418124608,45.6581106937981],[-73.5742929907213,45.6612374309413],[-73.5720220731063,45.662661455835],[-73.5659031712169,45.6650520559458],[-73.5634483260185,45.6662831647809],[-73.5541793774544,45.6727012791667],[-73.552090706408,45.6737390277036],[-73.5424314880539,45.6767929742606],[-73.538656578047,45.6787955159039],[-73.5310148925461,45.6852954961509],[-73.5295488986324,45.6874659050077],[-73.5276445275229,45.6925536083781],[-73.5266549092454,45.6942656332302],[-73.5251518625804,45.6961948195455],[-73.5214849141528,45.698871866969],[-73.5166620458243,45.7006447526896],[-73.5141543346444,45.7009621251575],[-73.5003934787768,45.7043788582632],[-73.4944133015878,45.7052426471881],[-73.4929364357448,45.7049726221088],[-73.4907792682886,45.7026599534334],[-73.4889211610238,45.7023404272758],[-73.4864245045555,45.7028409047716],[-73.4809416026057,45.7046653151011],[-73.4753538452285,45.7075796336657],[-73.4745579215264,45.7068056219696],[-73.4739675795573,45.7058696856839],[-73.4738652778201,45.7049248607638],[-73.4747785826475,45.7016227583778],[-73.4744753177544,45.7003948385648],[-73.4765853809082,45.6996019353642],[-73.4774407244818,45.6989595805164],[-73.4783378646224,45.6970052630915],[-73.4786643341772,45.6949439242641],[-73.4793166592103,45.6934447221693],[-73.4824339300438,45.6890944975619],[-73.484389066666,45.6871136489134],[-73.485611308795,45.6850791327209],[-73.4861819297645,45.6826160844572],[-73.486427431925,45.6780111352604],[-73.4865926500039,45.6680514796195],[-73.485779774223,45.6625360480265],[-73.4832380006464,45.6554960177073],[-73.4787639549822,45.6491490417397],[-73.4780061041053,45.6474923516141],[-73.4773039894877,45.643483427284],[-73.4779367042266,45.6395253882082],[-73.479562948573,45.6364720912748],[-73.4837187269206,45.6321158547173],[-73.4894509982579,45.623928964918],[-73.4948609843304,45.6188700346543],[-73.496651033108,45.6163529579743],[-73.4985219659534,45.612443959767],[-73.4994557071957,45.6093707744338],[-73.5072964706057,45.6106001343983],[-73.5071727142124,45.6099148819977],[-73.50840311387,45.6072333156584],[-73.5090437365692,45.6048217314967],[-73.5094789235577,45.6007724736213],[-73.5086578481101,45.5963813785926],[-73.5079142540725,45.5952116556711],[-73.5072986869979,45.5926831781698],[-73.5068756256879,45.59183736524],[-73.5055555259889,45.5920623943045],[-73.5039274951212,45.5877432813169],[-73.5049781747919,45.585313699857],[-73.5052216692208,45.585367678787],[-73.5056829263436,45.584458828399],[-73.5046448703952,45.5839999619299],[-73.5059131842176,45.5805265576215],[-73.5091800151368,45.575766144182],[-73.5138299811599,45.5709786610588],[-73.5175064216486,45.5690615137408],[-73.5155972910663,45.5682968417276],[-73.5159430171334,45.5676580036296],[-73.5154945824815,45.5675050937549],[-73.5180674697625,45.566136895057],[-73.5252789173238,45.5574826456589],[-73.5250488568445,45.5568749472413],[-73.5240973317264,45.5564817928522],[-73.520477464065,45.5603125977619],[-73.5214855619719,45.5590907285961],[-73.5208851433166,45.5588466555436],[-73.5217183658558,45.55762245738],[-73.5208376771851,45.5571512161601],[-73.5190960300521,45.558917738787],[-73.5185788063096,45.5586657040298],[-73.5220131964254,45.5551872649959],[-73.5131378106517,45.5522867579921],[-73.529226254918,45.5361048860956],[-73.5300242967012,45.5350068747579],[-73.5303682386405,45.5337978449856],[-73.5302322795687,45.5325685962772],[-73.5199088565597,45.4993280232],[-73.5204801419579,45.4992403314276],[-73.5192349733738,45.4951940771313],[-73.5296120107719,45.4917382253245],[-73.5242086023933,45.4781368826531],[-73.5198446811914,45.469212843168],[-73.5188483608508,45.4659268888858],[-73.5188130971663,45.4644043051187],[-73.5206968010171,45.4552880813829],[-73.5241687382663,45.4457646269305],[-73.526029583741,45.4422924328475],[-73.5283630846518,45.4388757035693],[-73.5312520847965,45.435431240208],[-73.5348077965721,45.4319590504142],[-73.5408634042345,45.4272923762686],[-73.5484467889899,45.4229312609371],[-73.5553080100387,45.4202923930154],[-73.5596416490452,45.4190701594801],[-73.5649196312527,45.4180423362332],[-73.5708362905381,45.4173479346986],[-73.5765029992292,45.4170977857996],[-73.5888092695971,45.4172366487709],[-73.5937815319321,45.4167644351089],[-73.5989482580373,45.4155699913192],[-73.606559768945,45.4129587966388],[-73.6113654282078,45.4117365855968],[-73.6162823110966,45.4108476721576],[-73.6212826582445,45.4103754902046],[-73.6264216537862,45.4104032172558],[-73.6362554587188,45.4096530547697],[-73.6413113101004,45.4102086570633],[-73.6461723087423,45.4121530801944],[-73.6553947901348,45.4178752589746],[-73.6653117767348,45.4216252584796],[-73.6718122305327,45.4225696956102],[-73.6920630155129,45.4231807180858],[-73.7073136771583,45.4227084949168],[-73.7543988124084,45.4199584362928],[-73.7679548477543,45.4186806870866],[-73.7747884900372,45.4174030363758],[-73.7824277185856,45.414930887497],[-73.7896777261987,45.4114863729099],[-73.7962894343242,45.4077364430152],[-73.8067618614657,45.4005697965684],[-73.8137066792339,45.3946808529182],[-73.8221792631662,45.3854030130529]]]}}]}