{"type":"FeatureCollection","name":"ville-de-montreal-arrondissements","attribution":"Ville de Montréal — Limites administratives de l’agglomération (arrondissements). Licence CC BY 4.0.","source":"https://donnees.montreal.ca/dataset/limites-administratives-agglomeration","features":[{"type":"Feature","properties":{"name":"Ville de Montréal (19 arrondissements)","excludes":"Côte-Saint-Luc, Hampstead, Montréal-Ouest, Mont-Royal, Westmount et autres villes liées"},"geometry":{"type":"Polygon","coordinates":[[[-73.5402801586715,45.4277089877255],[-73.5458633588955,45.4242923224039],[-73.551363462207,45.4216812279386],[-73.5553080100387,45.4202923930154],[-73.5616972581617,45.4185978587782],[-73.5683363855335,45.4175700314031],[-73.5733364596141,45.4171811269849],[-73.5915038259218,45.4170700119847],[-73.597416129716,45.4159918518701],[-73.606559768945,45.4129587966388],[-73.6146158396999,45.4110976506178],[-73.6212826582445,45.4103754902046],[-73.6292275372526,45.4102642761414],[-73.6341720963527,45.4097087970603],[-73.6387275351245,45.4097642818773],[-73.6435889656581,45.4109309011959],[-73.6482557114659,45.4132919729995],[-73.6535336864271,45.4169030456372],[-73.6553947901348,45.4178752589746],[-73.6636175537887,45.4210974514409],[-73.669867605266,45.4224307724158],[-73.6820070882059,45.4230418545136],[-73.6920630155129,45.4231807180858],[-73.7158429751312,45.4222701516323],[-73.7208526590656,45.4385284627471],[-73.7208058741776,45.4393299634097],[-73.7200341616362,45.4389723013585],[-73.7200870987064,45.4393593171294],[-73.7192963669644,45.4394273695021],[-73.7222978885331,45.4488827600834],[-73.7207921613616,45.4488532014799],[-73.7239962885627,45.459231595988],[-73.7248116745978,45.4609401940111],[-73.7079337183761,45.4734594928896],[-73.7224676790984,45.482752746441],[-73.7507528842443,45.4606047665602],[-73.7627567314817,45.4682489728501],[-73.7623593247835,45.4685649476176],[-73.7683877126036,45.4749622460411],[-73.76616020923,45.476759103828],[-73.7742008075922,45.4818126830036],[-73.7680963711561,45.4847575084256],[-73.7680016996818,45.4854182301561],[-73.7669352158163,45.4857560603322],[-73.7661183158566,45.4866433480986],[-73.7660798011249,45.4870364085523],[-73.7665090142799,45.4873994054312],[-73.7663422073832,45.4877946287496],[-73.7668304189149,45.4879251988644],[-73.7666186956098,45.4882555874118],[-73.767175449842,45.488770598088],[-73.7670448077151,45.4891703584501],[-73.7644152838328,45.4903928305344],[-73.7697079134625,45.4957120854658],[-73.7767710178135,45.5002107812211],[-73.7769823254713,45.5001115633928],[-73.7781823518444,45.5009029302334],[-73.7806166667364,45.4997407777691],[-73.7811999587739,45.5001114998205],[-73.7829245255516,45.4992871049615],[-73.7863127225576,45.5014167101833],[-73.7862223904554,45.5019919985933],[-73.7839402098728,45.5027079540029],[-73.7836989231722,45.5032373652718],[-73.7922619908268,45.5051680407475],[-73.7903577132327,45.5039489837168],[-73.8007055517459,45.4990112768569],[-73.8020606475844,45.5003095217406],[-73.8088784190322,45.4970502041332],[-73.8090623644696,45.4972584371451],[-73.8100290860775,45.4967971956799],[-73.8143621742626,45.5012876040386],[-73.8138378656171,45.5016017413551],[-73.8142041421713,45.5019854265186],[-73.8144279039677,45.5022100704089],[-73.8149882304351,45.501934078949],[-73.8151771568397,45.5021256581983],[-73.8146181004298,45.5024010225862],[-73.8149544492583,45.5027402661693],[-73.8151192916155,45.5029039096668],[-73.8157578106427,45.5026164947847],[-73.8192452737734,45.5061765237049],[-73.8355230569942,45.4982719367451],[-73.8358200577198,45.498735555354],[-73.8376389700728,45.4976967613157],[-73.8351952925387,45.494530755136],[-73.8505060331392,45.4867422912507],[-73.8458391465041,45.4795123222621],[-73.8574127172949,45.473664822662],[-73.8545614991212,45.4705984684729],[-73.860412740906,45.465997447627],[-73.8599272270007,45.4655833876661],[-73.8670626338729,45.4613995914544],[-73.8657884475346,45.4601141093025],[-73.8813984847329,45.4526511973635],[-73.8846687437967,45.4524830649224],[-73.888363039106,45.449524428574],[-73.8915559331429,45.4480380175978],[-73.8935946762323,45.446531285636],[-73.898075626626,45.4475437538645],[-73.9003748143104,45.4471505389987],[-73.9001306448312,45.4467125240673],[-73.9014672764408,45.4463496505098],[-73.9023358400463,45.4475044423966],[-73.9043508013535,45.4467821733663],[-73.9055644751472,45.4484299824445],[-73.9105123026606,45.4468708226453],[-73.9230979868292,45.4420132197447],[-73.9228265455881,45.4416273532149],[-73.9248130676623,45.4410033739653],[-73.9246220976708,45.4406897860177],[-73.9249003714888,45.4405974038118],[-73.937024240806,45.450964553479],[-73.9743512352816,45.4664316015052],[-73.9709067925099,45.4686815645703],[-73.9674342332785,45.4715704033487],[-73.9657119092986,45.4734314840765],[-73.9589616256519,45.482348177708],[-73.9536282375915,45.4885147657005],[-73.9462388642702,45.4958479897932],[-73.9333735504331,45.5075453254507],[-73.9301295707014,45.5092559324989],[-73.9239735364668,45.5115768274671],[-73.9194443650837,45.5137415885769],[-73.9154509051831,45.5167034476919],[-73.9104821617617,45.5209675404325],[-73.9076882639573,45.5222763199353],[-73.903984217769,45.5234883637496],[-73.8986507687527,45.5246435291],[-73.8961390910007,45.5255463424205],[-73.8923863874376,45.5227886008257],[-73.8900770111395,45.52201276374],[-73.8831481497972,45.52218101306],[-73.8783287870376,45.5206056436557],[-73.8677919322368,45.5198445206918],[-73.8635691122245,45.5199785375116],[-73.861752557824,45.5175369518067],[-73.8565812193317,45.5150698613583],[-73.8560952375806,45.5134076783381],[-73.8540003483317,45.5116781374218],[-73.8531784775282,45.5114863866728],[-73.8518799259602,45.511708898288],[-73.8504957712791,45.5125811339682],[-73.8473220193917,45.5166896418203],[-73.8455756062468,45.5181415733046],[-73.8443714722809,45.5185551268579],[-73.8331073511233,45.51832340835],[-73.8302572378946,45.5187173935329],[-73.826779370072,45.5180281526425],[-73.8214656862242,45.5160179423005],[-73.8201488279783,45.5159010483573],[-73.8128819120697,45.5176090903853],[-73.8106520753661,45.517735585713],[-73.8050853229582,45.5161593369832],[-73.801829507967,45.5159026877538],[-73.7996324276191,45.5153299081853],[-73.7984592128791,45.5147543257846],[-73.7970628017438,45.5134077113209],[-73.7949549969188,45.5123763667585],[-73.7714941079572,45.5113254636721],[-73.7661200686745,45.5114345818562],[-73.7637091052525,45.5118982376316],[-73.7612287388225,45.5131819261178],[-73.7596990289421,45.5144873380142],[-73.7581359155214,45.5164678438109],[-73.7558762504862,45.5181367156264],[-73.7535762361961,45.5189376482881],[-73.7497375067429,45.5191389617054],[-73.7476192773453,45.5197464338036],[-73.7447414706955,45.5222842204064],[-73.7426358132774,45.5258571019037],[-73.7412527125853,45.5274513712387],[-73.7381163108665,45.5296038263439],[-73.7343558028368,45.5311305869032],[-73.7297880963812,45.5322008788305],[-73.7279999769065,45.5332411755488],[-73.7240259981348,45.5364317142786],[-73.7212881757464,45.5379319151272],[-73.7161333530843,45.5386891715961],[-73.7133213568032,45.5398759672673],[-73.7110767419225,45.54123038394],[-73.7092747277811,45.5431763069818],[-73.7078617420202,45.5422891479669],[-73.7069157419552,45.543707086122],[-73.7055599125379,45.544141455528],[-73.7050471247225,45.5439894048911],[-73.7035004198903,45.5447660301759],[-73.7024886216912,45.5447318346837],[-73.7026824567545,45.5452174026364],[-73.7024022415981,45.5456408225864],[-73.7012381032588,45.5459848171101],[-73.7005871945086,45.5466068489456],[-73.6997926903735,45.5464642674756],[-73.6949039385381,45.5474175411357],[-73.6924442526679,45.5471787555583],[-73.6886551253525,45.5476618982862],[-73.6874039356105,45.5488248370091],[-73.6860479807014,45.5493039664185],[-73.6848182156943,45.5492159790731],[-73.6838947060507,45.5487855482688],[-73.6799265586835,45.549412753978],[-73.6800019646445,45.5489627172828],[-73.6792582487626,45.5486759392754],[-73.6790964178784,45.5501429254076],[-73.6771168733364,45.5519186877233],[-73.6742071143938,45.5552795470576],[-73.6733326336867,45.55830432152],[-73.6719164837321,45.5601601199728],[-73.6673659346302,45.563406279267],[-73.6656247261237,45.5637417554235],[-73.6643454303294,45.5643374931141],[-73.6635028145832,45.5653285188802],[-73.663198538081,45.5664267504201],[-73.6635872786772,45.5679469120771],[-73.6626420781714,45.5689290793916],[-73.6625705551917,45.5705237798444],[-73.6619294697621,45.5713396973303],[-73.661824327877,45.5732032601041],[-73.6611118390377,45.5747161142897],[-73.6624063003656,45.574988953176],[-73.6639049718045,45.5730120363302],[-73.6644480043112,45.5728120150966],[-73.665435971295,45.5729040001764],[-73.6660780119494,45.5737040000258],[-73.6659754572432,45.5740893221124],[-73.6639588391871,45.5767647342403],[-73.6621048553558,45.578135123729],[-73.6620676054775,45.5785490989235],[-73.6614921781034,45.5789638361397],[-73.6611489356704,45.5799181417146],[-73.6605357634334,45.5805848798869],[-73.6590248418722,45.5809919170167],[-73.656812093183,45.5824706980961],[-73.656913105495,45.5819306610548],[-73.6575904566769,45.5812817597026],[-73.6596768101576,45.5804421107933],[-73.6606089024343,45.5792710239292],[-73.6606203564794,45.5787940973587],[-73.6616539282638,45.5772809229975],[-73.6614352761383,45.5769932861584],[-73.6618273591591,45.5754997489656],[-73.6615845448921,45.5754273678844],[-73.6617290783758,45.5751207999071],[-73.6611610113556,45.5750010846046],[-73.6611748401151,45.5755359268578],[-73.660600129417,45.5761936133051],[-73.6607320082556,45.5775070908086],[-73.6600539460799,45.5778770645378],[-73.6601575539874,45.5782638467543],[-73.6597363132592,45.578831330166],[-73.6590581013245,45.5791562156714],[-73.658547474707,45.5798407970538],[-73.6582521979948,45.5796432436693],[-73.6581510509921,45.5801292924456],[-73.6571025360397,45.5809315886402],[-73.6552215530139,45.5819149753775],[-73.654302956979,45.5836316649034],[-73.6565194257812,45.5839592623429],[-73.6584686968985,45.5851236340859],[-73.6506659266122,45.5958284929277],[-73.6466745258188,45.5992755937985],[-73.645232766244,45.6009893436477],[-73.6399860848526,45.6115443210588],[-73.6383161115486,45.6174293509486],[-73.6342470271738,45.6237631925112],[-73.6304298814529,45.628601842766],[-73.6187458133554,45.638439704527],[-73.6111170156095,45.6440530862424],[-73.6066512369422,45.6465165205814],[-73.600973603505,45.648161220614],[-73.5847880072175,45.6567335678926],[-73.5809418124608,45.6581106937981],[-73.5742929907213,45.6612374309413],[-73.5720220731063,45.662661455835],[-73.5659031712169,45.6650520559458],[-73.5634483260185,45.6662831647809],[-73.5541793774544,45.6727012791667],[-73.552090706408,45.6737390277036],[-73.5424314880539,45.6767929742606],[-73.538656578047,45.6787955159039],[-73.5310148925461,45.6852954961509],[-73.5295488986324,45.6874659050077],[-73.5276445275229,45.6925536083781],[-73.5266549092454,45.6942656332302],[-73.5251518625804,45.6961948195455],[-73.5214849141528,45.698871866969],[-73.5191013912274,45.6999572979889],[-73.5166620458243,45.7006447526896],[-73.5141543346444,45.7009621251575],[-73.5003934787768,45.7043788582632],[-73.4944133015878,45.7052426471881],[-73.4929364357448,45.7049726221088],[-73.4907792682886,45.7026599534334],[-73.490073013153,45.7023449602368],[-73.4889211610238,45.7023404272758],[-73.4864245045555,45.7028409047716],[-73.4809416026057,45.7046653151011],[-73.4753538452285,45.7075796336657],[-73.4739675795573,45.7058696856839],[-73.4738652778201,45.7049248607638],[-73.4747785826475,45.7016227583778],[-73.4744753177544,45.7003948385648],[-73.4765853809082,45.6996019353642],[-73.4774407244818,45.6989595805164],[-73.4783378646224,45.6970052630915],[-73.4786643341772,45.6949439242641],[-73.4793166592103,45.6934447221693],[-73.4824339300438,45.6890944975619],[-73.484389066666,45.6871136489134],[-73.485611308795,45.6850791327209],[-73.4861819297645,45.6826160844572],[-73.4865926500039,45.6680514796195],[-73.4864303135925,45.6656418762049],[-73.485779774223,45.6625360480265],[-73.4843465036275,45.6581781941832],[-73.4829080822006,45.6548596358189],[-73.4782940344626,45.6482129642739],[-73.4775911607879,45.646052398206],[-73.4773138623701,45.643911923023],[-73.4776053448757,45.640709828158],[-73.4786848727238,45.6378404400198],[-73.4802315351314,45.6356412916654],[-73.484037278488,45.6316915126389],[-73.5214141788464,45.6376928254728],[-73.5448480173212,45.6483905811617],[-73.5545177123635,45.6432395219775],[-73.5683411667665,45.634205423665],[-73.5354973773815,45.6198981846944],[-73.5371865923846,45.6158367788368],[-73.5068797447704,45.6106520685169],[-73.5072964706057,45.6106001343983],[-73.5071727142124,45.6099148819977],[-73.5088515702407,45.6056405889889],[-73.5094789235577,45.6007724736213],[-73.5086578481101,45.5963813785926],[-73.5079142540725,45.5952116556711],[-73.5072986869979,45.5926831781698],[-73.5068756256879,45.59183736524],[-73.5056836727853,45.5918554273404],[-73.5055555259889,45.5920623943045],[-73.5039274951212,45.5877432813169],[-73.5049781747919,45.585313699857],[-73.5052216692208,45.585367678787],[-73.5056829263436,45.584458828399],[-73.5046448703952,45.5839999619299],[-73.5059131842176,45.5805265576215],[-73.5091800151368,45.575766144182],[-73.5139965569114,45.5710596256754],[-73.5138299811599,45.5709786610588],[-73.5175064216486,45.5690615137408],[-73.5155972910663,45.5682968417276],[-73.5159430171334,45.5676580036296],[-73.5154945824815,45.5675050937549],[-73.5180674697625,45.566136895057],[-73.5252748628058,45.557490102584],[-73.5253196158484,45.557136454139],[-73.5240973317264,45.5564817928522],[-73.5236063178599,45.5567794481627],[-73.5206353917233,45.5603756441046],[-73.5214855619719,45.5590907285961],[-73.5208851433166,45.5588466555436],[-73.5217775467732,45.5578705997368],[-73.5217183658558,45.55762245738],[-73.5208376771851,45.5571512161601],[-73.5190960300521,45.558917738787],[-73.5185788063096,45.5586657040298],[-73.5220131964254,45.5551872649959],[-73.5131378106517,45.5522867579921],[-73.529226254918,45.5361048860956],[-73.5300242967012,45.5350068747579],[-73.5303682386405,45.5337978449856],[-73.5302322795687,45.5325685962772],[-73.5199088565597,45.4993280232],[-73.5204801419579,45.4992403314276],[-73.5192349733738,45.4951940771313],[-73.5296120107719,45.4917382253245],[-73.5242174095869,45.4781573229603],[-73.5215643589472,45.473014865969],[-73.519481347561,45.4682101194235],[-73.5187940745228,45.4652061930365],[-73.5192934425788,45.4612536573378],[-73.5205829710911,45.4556877692349],[-73.5226131586385,45.449514629697],[-73.5241687382663,45.4457646269305],[-73.526029583741,45.4422924328475],[-73.5296965088175,45.4371535106648],[-73.5334743406735,45.4331534906812],[-73.5402801586715,45.4277089877255]],[[-73.6041641281432,45.4947203714656],[-73.6068419458715,45.4952738765999],[-73.608385648444,45.4936659144497],[-73.6093997348817,45.4940537833871],[-73.6116053156141,45.4917142197949],[-73.6147569062407,45.4930302132942],[-73.618408247699,45.4889763715839],[-73.6184234348839,45.4882108721713],[-73.6152917450613,45.4867885325615],[-73.6172175896392,45.4847889588706],[-73.6123776420159,45.4826069332136],[-73.6143755563175,45.4806218878416],[-73.6054047381558,45.4765725064802],[-73.6049973226213,45.4770172424421],[-73.5984733764263,45.474103127492],[-73.5866409479386,45.4823573256378],[-73.5857668648577,45.4825572959531],[-73.5851247919446,45.4822500006797],[-73.584351178597,45.483045119486],[-73.5806059889217,45.4855663204051],[-73.5817501091035,45.48699862583],[-73.5831344205434,45.488125614696],[-73.5824125681942,45.488344156946],[-73.5956957375278,45.4926233160116],[-73.5964755998898,45.4917071031234],[-73.6012408774966,45.4936988114117],[-73.6009372680365,45.4942780996122],[-73.6028844717717,45.4945091400316],[-73.6027680316057,45.4949959912244],[-73.6041641281432,45.4947203714656]],[[-73.6319657595212,45.4495075721744],[-73.6584428590196,45.4597106306997],[-73.6576202396609,45.4596847588843],[-73.6572035497195,45.4601354515247],[-73.6572753505934,45.4604588424051],[-73.6577211352176,45.460645289427],[-73.6577133921716,45.4612500414331],[-73.6582725912966,45.4614543959115],[-73.6557591256317,45.4629546417159],[-73.65221382354,45.4676262892284],[-73.6503483488656,45.4687325770908],[-73.6494534142936,45.4703819767711],[-73.6459221991156,45.4732764258199],[-73.6431197395997,45.4746029320189],[-73.6396069433533,45.4768039876261],[-73.6356689493653,45.4769722249839],[-73.6299237425901,45.4783653191456],[-73.6311682160767,45.4789670363981],[-73.6304022819319,45.4796467478868],[-73.6511635868918,45.4889846207765],[-73.6485590074254,45.4918690799778],[-73.6505350211935,45.4926836733542],[-73.6557920514672,45.4868762787764],[-73.6554563188024,45.486725431682],[-73.6559824954046,45.4846964858178],[-73.6559628471972,45.4789611509044],[-73.6609696470971,45.4811517643718],[-73.6618054047795,45.4802386979984],[-73.669756107572,45.4837141870182],[-73.6746354172564,45.4819611383445],[-73.6772119965759,45.483689462456],[-73.6828057220894,45.4631788812903],[-73.6812879545253,45.4621530374714],[-73.6818315521634,45.4613643568995],[-73.6827997065998,45.4610123183867],[-73.6831933365034,45.4600954579953],[-73.683022597287,45.4600293236706],[-73.6864977768239,45.4567561658398],[-73.6872336220642,45.4554023130482],[-73.67750535903,45.4527325098968],[-73.6717890699854,45.452691178522],[-73.6700561929966,45.4550197366143],[-73.6681674605759,45.4565499239048],[-73.644812378806,45.4475964662689],[-73.6431331736843,45.4478990144853],[-73.6431420587139,45.4483120915488],[-73.6388071019906,45.4466915393746],[-73.6364404905549,45.4479113905802],[-73.6319657595212,45.4495075721744]],[[-73.6772119965759,45.483689462456],[-73.675134823375,45.4912666941739],[-73.6680415376604,45.4868107403221],[-73.6658600658179,45.486758659583],[-73.6561795940075,45.4943312601545],[-73.663719245513,45.4991145079565],[-73.6617503774446,45.4992200874714],[-73.6624488399855,45.5022089448118],[-73.6605785557478,45.5024310183028],[-73.6600536215642,45.5033152840754],[-73.6599717485581,45.504704865209],[-73.6563924696114,45.5037244321616],[-73.6515988664495,45.5043070399838],[-73.6457335783484,45.5015988828026],[-73.6422398655787,45.5054563677164],[-73.6422892158973,45.5061826919163],[-73.6415391358478,45.5070193568948],[-73.6418676724279,45.507188025696],[-73.6416658472238,45.507544614635],[-73.638522837322,45.5111821791555],[-73.6366469955437,45.5143998780664],[-73.6358925719665,45.5141824259236],[-73.6346440471152,45.5156549953259],[-73.6289017345902,45.5140524766317],[-73.6244007290995,45.5196597189814],[-73.6207756693704,45.5236517681473],[-73.6221456270916,45.5240241627769],[-73.6227673033785,45.523352553299],[-73.6481900422292,45.5307198648469],[-73.6547466106852,45.5196148155219],[-73.6646440232336,45.5044276670966],[-73.6811893604249,45.4912622161431],[-73.6858354128035,45.4894568192998],[-73.6772119965759,45.483689462456]]]}}]}